<?xml version="1.0" encoding="UTF-8"?>
<gpx xmlns="http://www.topografix.com/GPX/1/0" version="1.0" creator="行者">
	<name>2025-12-21 上午 骑行</name>
	<author>行者</author>
	<url>https://www.imxingzhe.com</url>
	<trk>
		<trkseg>
			<trkpt lat="31.715388" lon="117.333855">
				<ele>0</ele>
				<Speed></Speed>
			</trkpt>
			<trkpt lat="31.715831" lon="117.334585">
				<ele>0</ele>
				<Speed></Speed>
			</trkpt>
			<trkpt lat="31.716327" lon="117.335808">
				<ele>0</ele>
				<Speed></Speed>
			</trkpt>
			<trkpt lat="31.717041" lon="117.336698">
				<ele>0</ele>
				<Speed></Speed>
			</trkpt>
			<trkpt lat="31.717419" lon="117.33731">
				<ele>0</ele>
				<Speed></Speed>
			</trkpt>
			<trkpt lat="31.71828" lon="117.339434">
				<ele>0</ele>
				<Speed></Speed>
			</trkpt>
			<trkpt lat="31.718551" lon="117.340475">
				<ele>0</ele>
				<Speed></Speed>
			</trkpt>
			<trkpt lat="31.719519" lon="117.343382">
				<ele>0</ele>
				<Speed></Speed>
			</trkpt>
			<trkpt lat="31.720241" lon="117.34644">
				<ele>0</ele>
				<Speed></Speed>
			</trkpt>
			<trkpt lat="31.720517" lon="117.347953">
				<ele>0</ele>
				<Speed></Speed>
			</trkpt>
			<trkpt lat="31.720887" lon="117.351118">
				<ele>0</ele>
				<Speed></Speed>
			</trkpt>
			<trkpt lat="31.721099" lon="117.355034">
				<ele>0</ele>
				<Speed></Speed>
			</trkpt>
			<trkpt lat="31.721179" lon="117.360913">
				<ele>0</ele>
				<Speed></Speed>
			</trkpt>
			<trkpt lat="31.720874" lon="117.363467">
				<ele>0</ele>
				<Speed></Speed>
			</trkpt>
			<trkpt lat="31.720401" lon="117.365076">
				<ele>0</ele>
				<Speed></Speed>
			</trkpt>
			<trkpt lat="31.719291" lon="117.367769">
				<ele>0</ele>
				<Speed></Speed>
			</trkpt>
			<trkpt lat="31.718618" lon="117.370848">
				<ele>0</ele>
				<Speed></Speed>
			</trkpt>
			<trkpt lat="31.71836" lon="117.371213">
				<ele>0</ele>
				<Speed></Speed>
			</trkpt>
			<trkpt lat="31.718296" lon="117.371739">
				<ele>0</ele>
				<Speed></Speed>
			</trkpt>
			<trkpt lat="31.718119" lon="117.3722">
				<ele>0</ele>
				<Speed></Speed>
			</trkpt>
			<trkpt lat="31.716995" lon="117.37456">
				<ele>0</ele>
				<Speed></Speed>
			</trkpt>
			<trkpt lat="31.716697" lon="117.375354">
				<ele>0</ele>
				<Speed></Speed>
			</trkpt>
			<trkpt lat="31.716504" lon="117.376341">
				<ele>0</ele>
				<Speed></Speed>
			</trkpt>
			<trkpt lat="31.716276" lon="117.378734">
				<ele>0</ele>
				<Speed></Speed>
			</trkpt>
			<trkpt lat="31.715973" lon="117.379571">
				<ele>0</ele>
				<Speed></Speed>
			</trkpt>
			<trkpt lat="31.715225" lon="117.380998">
				<ele>0</ele>
				<Speed></Speed>
			</trkpt>
			<trkpt lat="31.714959" lon="117.381856">
				<ele>0</ele>
				<Speed></Speed>
			</trkpt>
			<trkpt lat="31.714852" lon="117.382596">
				<ele>0</ele>
				<Speed></Speed>
			</trkpt>
			<trkpt lat="31.714841" lon="117.384485">
				<ele>0</ele>
				<Speed></Speed>
			</trkpt>
			<trkpt lat="31.714729" lon="117.385493">
				<ele>0</ele>
				<Speed></Speed>
			</trkpt>
			<trkpt lat="31.714471" lon="117.386652">
				<ele>0</ele>
				<Speed></Speed>
			</trkpt>
			<trkpt lat="31.713817" lon="117.388722">
				<ele>0</ele>
				<Speed></Speed>
			</trkpt>
			<trkpt lat="31.713535" lon="117.390621">
				<ele>0</ele>
				<Speed></Speed>
			</trkpt>
			<trkpt lat="31.713052" lon="117.392724">
				<ele>0</ele>
				<Speed></Speed>
			</trkpt>
			<trkpt lat="31.712897" lon="117.39384">
				<ele>0</ele>
				<Speed></Speed>
			</trkpt>
			<trkpt lat="31.710432" lon="117.400556">
				<ele>0</ele>
				<Speed></Speed>
			</trkpt>
			<trkpt lat="31.71004" lon="117.401854">
				<ele>0</ele>
				<Speed></Speed>
			</trkpt>
			<trkpt lat="31.70986" lon="117.403281">
				<ele>0</ele>
				<Speed></Speed>
			</trkpt>
			<trkpt lat="31.709817" lon="117.410309">
				<ele>0</ele>
				<Speed></Speed>
			</trkpt>
			<trkpt lat="31.709651" lon="117.411189">
				<ele>0</ele>
				<Speed></Speed>
			</trkpt>
			<trkpt lat="31.709445" lon="117.411704">
				<ele>0</ele>
				<Speed></Speed>
			</trkpt>
			<trkpt lat="31.709077" lon="117.412261">
				<ele>0</ele>
				<Speed></Speed>
			</trkpt>
			<trkpt lat="31.703123" lon="117.419375">
				<ele>0</ele>
				<Speed></Speed>
			</trkpt>
			<trkpt lat="31.702278" lon="117.420512">
				<ele>0</ele>
				<Speed></Speed>
			</trkpt>
			<trkpt lat="31.701792" lon="117.421488">
				<ele>0</ele>
				<Speed></Speed>
			</trkpt>
			<trkpt lat="31.701055" lon="117.423537">
				<ele>0</ele>
				<Speed></Speed>
			</trkpt>
			<trkpt lat="31.700671" lon="117.424364">
				<ele>0</ele>
				<Speed></Speed>
			</trkpt>
			<trkpt lat="31.69808" lon="117.428634">
				<ele>0</ele>
				<Speed></Speed>
			</trkpt>
			<trkpt lat="31.696828" lon="117.431391">
				<ele>0</ele>
				<Speed></Speed>
			</trkpt>
			<trkpt lat="31.696559" lon="117.432335">
				<ele>0</ele>
				<Speed></Speed>
			</trkpt>
			<trkpt lat="31.695312" lon="117.440124">
				<ele>0</ele>
				<Speed></Speed>
			</trkpt>
			<trkpt lat="31.694899" lon="117.441573">
				<ele>0</ele>
				<Speed></Speed>
			</trkpt>
			<trkpt lat="31.693689" lon="117.444459">
				<ele>0</ele>
				<Speed></Speed>
			</trkpt>
			<trkpt lat="31.692233" lon="117.448418">
				<ele>0</ele>
				<Speed></Speed>
			</trkpt>
			<trkpt lat="31.691817" lon="117.44904">
				<ele>0</ele>
				<Speed></Speed>
			</trkpt>
			<trkpt lat="31.689599" lon="117.451819">
				<ele>0</ele>
				<Speed></Speed>
			</trkpt>
			<trkpt lat="31.689119" lon="117.452688">
				<ele>0</ele>
				<Speed></Speed>
			</trkpt>
			<trkpt lat="31.688781" lon="117.453535">
				<ele>0</ele>
				<Speed></Speed>
			</trkpt>
			<trkpt lat="31.688464" lon="117.455102">
				<ele>0</ele>
				<Speed></Speed>
			</trkpt>
			<trkpt lat="31.688405" lon="117.459061">
				<ele>0</ele>
				<Speed></Speed>
			</trkpt>
			<trkpt lat="31.688309" lon="117.460294">
				<ele>0</ele>
				<Speed></Speed>
			</trkpt>
			<trkpt lat="31.688202" lon="117.460498">
				<ele>0</ele>
				<Speed></Speed>
			</trkpt>
			<trkpt lat="31.686885" lon="117.460691">
				<ele>0</ele>
				<Speed></Speed>
			</trkpt>
			<trkpt lat="31.678291" lon="117.461035">
				<ele>0</ele>
				<Speed></Speed>
			</trkpt>
			<trkpt lat="31.677532" lon="117.461206">
				<ele>0</ele>
				<Speed></Speed>
			</trkpt>
			<trkpt lat="31.672403" lon="117.463202">
				<ele>0</ele>
				<Speed></Speed>
			</trkpt>
			<trkpt lat="31.669343" lon="117.4642">
				<ele>0</ele>
				<Speed></Speed>
			</trkpt>
			<trkpt lat="31.666095" lon="117.465101">
				<ele>0</ele>
				<Speed></Speed>
			</trkpt>
			<trkpt lat="31.662715" lon="117.466421">
				<ele>0</ele>
				<Speed></Speed>
			</trkpt>
			<trkpt lat="31.661559" lon="117.467118">
				<ele>0</ele>
				<Speed></Speed>
			</trkpt>
			<trkpt lat="31.658217" lon="117.469843">
				<ele>0</ele>
				<Speed></Speed>
			</trkpt>
			<trkpt lat="31.657324" lon="117.470358">
				<ele>0</ele>
				<Speed></Speed>
			</trkpt>
			<trkpt lat="31.655969" lon="117.47083">
				<ele>0</ele>
				<Speed></Speed>
			</trkpt>
			<trkpt lat="31.654714" lon="117.47098">
				<ele>0</ele>
				<Speed></Speed>
			</trkpt>
			<trkpt lat="31.653539" lon="117.470884">
				<ele>0</ele>
				<Speed></Speed>
			</trkpt>
			<trkpt lat="31.65255" lon="117.470616">
				<ele>0</ele>
				<Speed></Speed>
			</trkpt>
			<trkpt lat="31.650165" lon="117.469564">
				<ele>0</ele>
				<Speed></Speed>
			</trkpt>
			<trkpt lat="31.648733" lon="117.469114">
				<ele>0</ele>
				<Speed></Speed>
			</trkpt>
			<trkpt lat="31.647545" lon="117.468878">
				<ele>0</ele>
				<Speed></Speed>
			</trkpt>
			<trkpt lat="31.645399" lon="117.468835">
				<ele>0</ele>
				<Speed></Speed>
			</trkpt>
			<trkpt lat="31.635984" lon="117.470047">
				<ele>0</ele>
				<Speed></Speed>
			</trkpt>
			<trkpt lat="31.634396" lon="117.470412">
				<ele>0</ele>
				<Speed></Speed>
			</trkpt>
			<trkpt lat="31.630392" lon="117.471603">
				<ele>0</ele>
				<Speed></Speed>
			</trkpt>
			<trkpt lat="31.629627" lon="117.471764">
				<ele>0</ele>
				<Speed></Speed>
			</trkpt>
			<trkpt lat="31.628817" lon="117.471667">
				<ele>0</ele>
				<Speed></Speed>
			</trkpt>
			<trkpt lat="31.626937" lon="117.470841">
				<ele>0</ele>
				<Speed></Speed>
			</trkpt>
			<trkpt lat="31.625867" lon="117.470701">
				<ele>0</ele>
				<Speed></Speed>
			</trkpt>
			<trkpt lat="31.620291" lon="117.471313">
				<ele>0</ele>
				<Speed></Speed>
			</trkpt>
			<trkpt lat="31.619448" lon="117.47157">
				<ele>0</ele>
				<Speed></Speed>
			</trkpt>
			<trkpt lat="31.617968" lon="117.472311">
				<ele>0</ele>
				<Speed></Speed>
			</trkpt>
			<trkpt lat="31.61704" lon="117.472493">
				<ele>0</ele>
				<Speed></Speed>
			</trkpt>
			<trkpt lat="31.60998" lon="117.472">
				<ele>0</ele>
				<Speed></Speed>
			</trkpt>
			<trkpt lat="31.609017" lon="117.472236">
				<ele>0</ele>
				<Speed></Speed>
			</trkpt>
			<trkpt lat="31.608253" lon="117.472676">
				<ele>0</ele>
				<Speed></Speed>
			</trkpt>
			<trkpt lat="31.607741" lon="117.473148">
				<ele>0</ele>
				<Speed></Speed>
			</trkpt>
			<trkpt lat="31.606204" lon="117.47524">
				<ele>0</ele>
				<Speed></Speed>
			</trkpt>
			<trkpt lat="31.605571" lon="117.475658">
				<ele>0</ele>
				<Speed></Speed>
			</trkpt>
			<trkpt lat="31.604745" lon="117.475873">
				<ele>0</ele>
				<Speed></Speed>
			</trkpt>
			<trkpt lat="31.60398" lon="117.475776">
				<ele>0</ele>
				<Speed></Speed>
			</trkpt>
			<trkpt lat="31.603063" lon="117.475444">
				<ele>0</ele>
				<Speed></Speed>
			</trkpt>
			<trkpt lat="31.601416" lon="117.474371">
				<ele>0</ele>
				<Speed></Speed>
			</trkpt>
			<trkpt lat="31.600676" lon="117.474178">
				<ele>0</ele>
				<Speed></Speed>
			</trkpt>
			<trkpt lat="31.599557" lon="117.474167">
				<ele>0</ele>
				<Speed></Speed>
			</trkpt>
			<trkpt lat="31.598728" lon="117.473663">
				<ele>0</ele>
				<Speed></Speed>
			</trkpt>
			<trkpt lat="31.598152" lon="117.473137">
				<ele>0</ele>
				<Speed></Speed>
			</trkpt>
			<trkpt lat="31.597004" lon="117.471817">
				<ele>0</ele>
				<Speed></Speed>
			</trkpt>
			<trkpt lat="31.595298" lon="117.469596">
				<ele>0</ele>
				<Speed></Speed>
			</trkpt>
			<trkpt lat="31.591741" lon="117.466753">
				<ele>0</ele>
				<Speed></Speed>
			</trkpt>
			<trkpt lat="31.589341" lon="117.465058">
				<ele>0</ele>
				<Speed></Speed>
			</trkpt>
			<trkpt lat="31.588987" lon="117.464629">
				<ele>0</ele>
				<Speed></Speed>
			</trkpt>
			<trkpt lat="31.588142" lon="117.463277">
				<ele>0</ele>
				<Speed></Speed>
			</trkpt>
			<trkpt lat="31.587624" lon="117.462944">
				<ele>0</ele>
				<Speed></Speed>
			</trkpt>
			<trkpt lat="31.587436" lon="117.462934">
				<ele>0</ele>
				<Speed></Speed>
			</trkpt>
			<trkpt lat="31.587313" lon="117.46302">
				<ele>0</ele>
				<Speed></Speed>
			</trkpt>
			<trkpt lat="31.586972" lon="117.464114">
				<ele>0</ele>
				<Speed></Speed>
			</trkpt>
			<trkpt lat="31.587037" lon="117.46524">
				<ele>0</ele>
				<Speed></Speed>
			</trkpt>
			<trkpt lat="31.5869" lon="117.466228">
				<ele>0</ele>
				<Speed></Speed>
			</trkpt>
			<trkpt lat="31.586715" lon="117.466388">
				<ele>0</ele>
				<Speed></Speed>
			</trkpt>
			<trkpt lat="31.586184" lon="117.466378">
				<ele>0</ele>
				<Speed></Speed>
			</trkpt>
			<trkpt lat="31.585969" lon="117.466453">
				<ele>0</ele>
				<Speed></Speed>
			</trkpt>
			<trkpt lat="31.585712" lon="117.466893">
				<ele>0</ele>
				<Speed></Speed>
			</trkpt>
			<trkpt lat="31.5854" lon="117.467762">
				<ele>0</ele>
				<Speed></Speed>
			</trkpt>
			<trkpt lat="31.585312" lon="117.468395">
				<ele>0</ele>
				<Speed></Speed>
			</trkpt>
			<trkpt lat="31.5854" lon="117.469199">
				<ele>0</ele>
				<Speed></Speed>
			</trkpt>
			<trkpt lat="31.585993" lon="117.470101">
				<ele>0</ele>
				<Speed></Speed>
			</trkpt>
			<trkpt lat="31.586538" lon="117.47112">
				<ele>0</ele>
				<Speed></Speed>
			</trkpt>
			<trkpt lat="31.587737" lon="117.473791">
				<ele>0</ele>
				<Speed></Speed>
			</trkpt>
			<trkpt lat="31.587852" lon="117.473824">
				<ele>0</ele>
				<Speed></Speed>
			</trkpt>
			<trkpt lat="31.587938" lon="117.473663">
				<ele>0</ele>
				<Speed></Speed>
			</trkpt>
			<trkpt lat="31.58816" lon="117.47201">
				<ele>0</ele>
				<Speed></Speed>
			</trkpt>
			<trkpt lat="31.588276" lon="117.47186">
				<ele>0</ele>
				<Speed></Speed>
			</trkpt>
			<trkpt lat="31.588456" lon="117.471839">
				<ele>0</ele>
				<Speed></Speed>
			</trkpt>
			<trkpt lat="31.589131" lon="117.471967">
				<ele>0</ele>
				<Speed></Speed>
			</trkpt>
			<trkpt lat="31.589276" lon="117.472075">
				<ele>0</ele>
				<Speed></Speed>
			</trkpt>
			<trkpt lat="31.589196" lon="117.473652">
				<ele>0</ele>
				<Speed></Speed>
			</trkpt>
			<trkpt lat="31.589451" lon="117.47377">
				<ele>0</ele>
				<Speed></Speed>
			</trkpt>
			<trkpt lat="31.590336" lon="117.47392">
				<ele>0</ele>
				<Speed></Speed>
			</trkpt>
			<trkpt lat="31.590448" lon="117.474027">
				<ele>0</ele>
				<Speed></Speed>
			</trkpt>
			<trkpt lat="31.590486" lon="117.47421">
				<ele>0</ele>
				<Speed></Speed>
			</trkpt>
			<trkpt lat="31.590432" lon="117.474972">
				<ele>0</ele>
				<Speed></Speed>
			</trkpt>
			<trkpt lat="31.59029" lon="117.475261">
				<ele>0</ele>
				<Speed></Speed>
			</trkpt>
			<trkpt lat="31.590059" lon="117.475283">
				<ele>0</ele>
				<Speed></Speed>
			</trkpt>
			<trkpt lat="31.588726" lon="117.475036">
				<ele>0</ele>
				<Speed></Speed>
			</trkpt>
			<trkpt lat="31.588552" lon="117.475036">
				<ele>0</ele>
				<Speed></Speed>
			</trkpt>
			<trkpt lat="31.588437" lon="117.475175">
				<ele>0</ele>
				<Speed></Speed>
			</trkpt>
			<trkpt lat="31.588793" lon="117.476742">
				<ele>0</ele>
				<Speed></Speed>
			</trkpt>
			<trkpt lat="31.589461" lon="117.478888">
				<ele>0</ele>
				<Speed></Speed>
			</trkpt>
			<trkpt lat="31.589563" lon="117.480722">
				<ele>0</ele>
				<Speed></Speed>
			</trkpt>
			<trkpt lat="31.589987" lon="117.483587">
				<ele>0</ele>
				<Speed></Speed>
			</trkpt>
			<trkpt lat="31.590073" lon="117.48467">
				<ele>0</ele>
				<Speed></Speed>
			</trkpt>
			<trkpt lat="31.589199" lon="117.487052">
				<ele>0</ele>
				<Speed></Speed>
			</trkpt>
			<trkpt lat="31.58885" lon="117.488672">
				<ele>0</ele>
				<Speed></Speed>
			</trkpt>
			<trkpt lat="31.588807" lon="117.489691">
				<ele>0</ele>
				<Speed></Speed>
			</trkpt>
			<trkpt lat="31.58838" lon="117.491129">
				<ele>0</ele>
				<Speed></Speed>
			</trkpt>
			<trkpt lat="31.58778" lon="117.493844">
				<ele>0</ele>
				<Speed></Speed>
			</trkpt>
			<trkpt lat="31.587117" lon="117.495496">
				<ele>0</ele>
				<Speed></Speed>
			</trkpt>
			<trkpt lat="31.585891" lon="117.498157">
				<ele>0</ele>
				<Speed></Speed>
			</trkpt>
			<trkpt lat="31.585856" lon="117.498639">
				<ele>0</ele>
				<Speed></Speed>
			</trkpt>
			<trkpt lat="31.5855" lon="117.500227">
				<ele>0</ele>
				<Speed></Speed>
			</trkpt>
			<trkpt lat="31.585038" lon="117.501633">
				<ele>0</ele>
				<Speed></Speed>
			</trkpt>
			<trkpt lat="31.584928" lon="117.50292">
				<ele>0</ele>
				<Speed></Speed>
			</trkpt>
			<trkpt lat="31.584947" lon="117.503972">
				<ele>0</ele>
				<Speed></Speed>
			</trkpt>
			<trkpt lat="31.58481" lon="117.504991">
				<ele>0</ele>
				<Speed></Speed>
			</trkpt>
			<trkpt lat="31.584912" lon="117.505506">
				<ele>0</ele>
				<Speed></Speed>
			</trkpt>
			<trkpt lat="31.585223" lon="117.505892">
				<ele>0</ele>
				<Speed></Speed>
			</trkpt>
			<trkpt lat="31.585435" lon="117.506031">
				<ele>0</ele>
				<Speed></Speed>
			</trkpt>
			<trkpt lat="31.585921" lon="117.506117">
				<ele>0</ele>
				<Speed></Speed>
			</trkpt>
			<trkpt lat="31.586216" lon="117.506482">
				<ele>0</ele>
				<Speed></Speed>
			</trkpt>
			<trkpt lat="31.586653" lon="117.507469">
				<ele>0</ele>
				<Speed></Speed>
			</trkpt>
			<trkpt lat="31.587608" lon="117.510162">
				<ele>0</ele>
				<Speed></Speed>
			</trkpt>
			<trkpt lat="31.587503" lon="117.510452">
				<ele>0</ele>
				<Speed></Speed>
			</trkpt>
			<trkpt lat="31.586806" lon="117.511074">
				<ele>0</ele>
				<Speed></Speed>
			</trkpt>
			<trkpt lat="31.58661" lon="117.51145">
				<ele>0</ele>
				<Speed></Speed>
			</trkpt>
			<trkpt lat="31.587238" lon="117.514464">
				<ele>0</ele>
				<Speed></Speed>
			</trkpt>
			<trkpt lat="31.587796" lon="117.517812">
				<ele>0</ele>
				<Speed></Speed>
			</trkpt>
			<trkpt lat="31.588174" lon="117.522372">
				<ele>0</ele>
				<Speed></Speed>
			</trkpt>
			<trkpt lat="31.58812" lon="117.523627">
				<ele>0</ele>
				<Speed></Speed>
			</trkpt>
			<trkpt lat="31.588233" lon="117.525215">
				<ele>0</ele>
				<Speed></Speed>
			</trkpt>
			<trkpt lat="31.588112" lon="117.525408">
				<ele>0</ele>
				<Speed></Speed>
			</trkpt>
			<trkpt lat="31.587613" lon="117.525719">
				<ele>0</ele>
				<Speed></Speed>
			</trkpt>
			<trkpt lat="31.587423" lon="117.526159">
				<ele>0</ele>
				<Speed></Speed>
			</trkpt>
			<trkpt lat="31.586881" lon="117.529302">
				<ele>0</ele>
				<Speed></Speed>
			</trkpt>
			<trkpt lat="31.586822" lon="117.53001">
				<ele>0</ele>
				<Speed></Speed>
			</trkpt>
			<trkpt lat="31.586876" lon="117.53163">
				<ele>0</ele>
				<Speed></Speed>
			</trkpt>
			<trkpt lat="31.586701" lon="117.532424">
				<ele>0</ele>
				<Speed></Speed>
			</trkpt>
			<trkpt lat="31.586532" lon="117.532714">
				<ele>0</ele>
				<Speed></Speed>
			</trkpt>
			<trkpt lat="31.585792" lon="117.533422">
				<ele>0</ele>
				<Speed></Speed>
			</trkpt>
			<trkpt lat="31.585647" lon="117.533712">
				<ele>0</ele>
				<Speed></Speed>
			</trkpt>
			<trkpt lat="31.585358" lon="117.536019">
				<ele>0</ele>
				<Speed></Speed>
			</trkpt>
			<trkpt lat="31.58418" lon="117.54266">
				<ele>0</ele>
				<Speed></Speed>
			</trkpt>
			<trkpt lat="31.584145" lon="117.543647">
				<ele>0</ele>
				<Speed></Speed>
			</trkpt>
			<trkpt lat="31.58377" lon="117.545911">
				<ele>0</ele>
				<Speed></Speed>
			</trkpt>
			<trkpt lat="31.582249" lon="117.548711">
				<ele>0</ele>
				<Speed></Speed>
			</trkpt>
			<trkpt lat="31.581385" lon="117.549934">
				<ele>0</ele>
				<Speed></Speed>
			</trkpt>
			<trkpt lat="31.577762" lon="117.555738">
				<ele>0</ele>
				<Speed></Speed>
			</trkpt>
			<trkpt lat="31.576766" lon="117.557948">
				<ele>0</ele>
				<Speed></Speed>
			</trkpt>
			<trkpt lat="31.576437" lon="117.559053">
				<ele>0</ele>
				<Speed></Speed>
			</trkpt>
			<trkpt lat="31.576152" lon="117.559568">
				<ele>0</ele>
				<Speed></Speed>
			</trkpt>
			<trkpt lat="31.575216" lon="117.56092">
				<ele>0</ele>
				<Speed></Speed>
			</trkpt>
			<trkpt lat="31.574519" lon="117.56165">
				<ele>0</ele>
				<Speed></Speed>
			</trkpt>
			<trkpt lat="31.574127" lon="117.562304">
				<ele>0</ele>
				<Speed></Speed>
			</trkpt>
			<trkpt lat="31.573977" lon="117.562723">
				<ele>0</ele>
				<Speed></Speed>
			</trkpt>
			<trkpt lat="31.573736" lon="117.563999">
				<ele>0</ele>
				<Speed></Speed>
			</trkpt>
			<trkpt lat="31.573773" lon="117.564675">
				<ele>0</ele>
				<Speed></Speed>
			</trkpt>
			<trkpt lat="31.573907" lon="117.565169">
				<ele>0</ele>
				<Speed></Speed>
			</trkpt>
			<trkpt lat="31.574444" lon="117.565695">
				<ele>0</ele>
				<Speed></Speed>
			</trkpt>
			<trkpt lat="31.575801" lon="117.566467">
				<ele>0</ele>
				<Speed></Speed>
			</trkpt>
			<trkpt lat="31.575533" lon="117.567862">
				<ele>0</ele>
				<Speed></Speed>
			</trkpt>
			<trkpt lat="31.575664" lon="117.568784">
				<ele>0</ele>
				<Speed></Speed>
			</trkpt>
			<trkpt lat="31.575796" lon="117.568988">
				<ele>0</ele>
				<Speed></Speed>
			</trkpt>
			<trkpt lat="31.576592" lon="117.569525">
				<ele>0</ele>
				<Speed></Speed>
			</trkpt>
			<trkpt lat="31.577255" lon="117.570093">
				<ele>0</ele>
				<Speed></Speed>
			</trkpt>
			<trkpt lat="31.57822" lon="117.570555">
				<ele>0</ele>
				<Speed></Speed>
			</trkpt>
			<trkpt lat="31.57892" lon="117.57107">
				<ele>0</ele>
				<Speed></Speed>
			</trkpt>
			<trkpt lat="31.583496" lon="117.573645">
				<ele>0</ele>
				<Speed></Speed>
			</trkpt>
			<trkpt lat="31.584733" lon="117.574728">
				<ele>0</ele>
				<Speed></Speed>
			</trkpt>
			<trkpt lat="31.585223" lon="117.575254">
				<ele>0</ele>
				<Speed></Speed>
			</trkpt>
			<trkpt lat="31.585993" lon="117.576305">
				<ele>0</ele>
				<Speed></Speed>
			</trkpt>
			<trkpt lat="31.587753" lon="117.579427">
				<ele>0</ele>
				<Speed></Speed>
			</trkpt>
			<trkpt lat="31.589445" lon="117.583354">
				<ele>0</ele>
				<Speed></Speed>
			</trkpt>
			<trkpt lat="31.589767" lon="117.583783">
				<ele>0</ele>
				<Speed></Speed>
			</trkpt>
			<trkpt lat="31.590717" lon="117.584588">
				<ele>0</ele>
				<Speed></Speed>
			</trkpt>
			<trkpt lat="31.59216" lon="117.58521">
				<ele>0</ele>
				<Speed></Speed>
			</trkpt>
			<trkpt lat="31.594992" lon="117.58683">
				<ele>0</ele>
				<Speed></Speed>
			</trkpt>
			<trkpt lat="31.595604" lon="117.587646">
				<ele>0</ele>
				<Speed></Speed>
			</trkpt>
			<trkpt lat="31.596953" lon="117.588676">
				<ele>0</ele>
				<Speed></Speed>
			</trkpt>
			<trkpt lat="31.598779" lon="117.590328">
				<ele>0</ele>
				<Speed></Speed>
			</trkpt>
			<trkpt lat="31.600126" lon="117.591605">
				<ele>0</ele>
				<Speed></Speed>
			</trkpt>
			<trkpt lat="31.600603" lon="117.592206">
				<ele>0</ele>
				<Speed></Speed>
			</trkpt>
			<trkpt lat="31.601572" lon="117.592839">
				<ele>0</ele>
				<Speed></Speed>
			</trkpt>
			<trkpt lat="31.602028" lon="117.593053">
				<ele>0</ele>
				<Speed></Speed>
			</trkpt>
			<trkpt lat="31.60239" lon="117.593107">
				<ele>0</ele>
				<Speed></Speed>
			</trkpt>
			<trkpt lat="31.605941" lon="117.596701">
				<ele>0</ele>
				<Speed></Speed>
			</trkpt>
			<trkpt lat="31.609009" lon="117.600274">
				<ele>0</ele>
				<Speed></Speed>
			</trkpt>
			<trkpt lat="31.612032" lon="117.603278">
				<ele>0</ele>
				<Speed></Speed>
			</trkpt>
			<trkpt lat="31.612955" lon="117.604072">
				<ele>0</ele>
				<Speed></Speed>
			</trkpt>
			<trkpt lat="31.614325" lon="117.605016">
				<ele>0</ele>
				<Speed></Speed>
			</trkpt>
			<trkpt lat="31.618944" lon="117.607398">
				<ele>0</ele>
				<Speed></Speed>
			</trkpt>
			<trkpt lat="31.619851" lon="117.608106">
				<ele>0</ele>
				<Speed></Speed>
			</trkpt>
			<trkpt lat="31.620291" lon="117.608599">
				<ele>0</ele>
				<Speed></Speed>
			</trkpt>
			<trkpt lat="31.62083" lon="117.609457">
				<ele>0</ele>
				<Speed></Speed>
			</trkpt>
			<trkpt lat="31.625108" lon="117.617858">
				<ele>0</ele>
				<Speed></Speed>
			</trkpt>
			<trkpt lat="31.625451" lon="117.618352">
				<ele>0</ele>
				<Speed></Speed>
			</trkpt>
			<trkpt lat="31.626092" lon="117.619049">
				<ele>0</ele>
				<Speed></Speed>
			</trkpt>
			<trkpt lat="31.626865" lon="117.619628">
				<ele>0</ele>
				<Speed></Speed>
			</trkpt>
			<trkpt lat="31.628077" lon="117.620154">
				<ele>0</ele>
				<Speed></Speed>
			</trkpt>
			<trkpt lat="31.631577" lon="117.621173">
				<ele>0</ele>
				<Speed></Speed>
			</trkpt>
			<trkpt lat="31.633881" lon="117.621603">
				<ele>0</ele>
				<Speed></Speed>
			</trkpt>
			<trkpt lat="31.636105" lon="117.622268">
				<ele>0</ele>
				<Speed></Speed>
			</trkpt>
			<trkpt lat="31.639139" lon="117.623555">
				<ele>0</ele>
				<Speed></Speed>
			</trkpt>
			<trkpt lat="31.642279" lon="117.625229">
				<ele>0</ele>
				<Speed></Speed>
			</trkpt>
			<trkpt lat="31.644138" lon="117.626355">
				<ele>0</ele>
				<Speed></Speed>
			</trkpt>
			<trkpt lat="31.645351" lon="117.62731">
				<ele>0</ele>
				<Speed></Speed>
			</trkpt>
			<trkpt lat="31.646233" lon="117.628158">
				<ele>0</ele>
				<Speed></Speed>
			</trkpt>
			<trkpt lat="31.64888" lon="117.631033">
				<ele>0</ele>
				<Speed></Speed>
			</trkpt>
			<trkpt lat="31.650578" lon="117.63246">
				<ele>0</ele>
				<Speed></Speed>
			</trkpt>
			<trkpt lat="31.652383" lon="117.633512">
				<ele>0</ele>
				<Speed></Speed>
			</trkpt>
			<trkpt lat="31.656197" lon="117.635046">
				<ele>0</ele>
				<Speed></Speed>
			</trkpt>
			<trkpt lat="31.656956" lon="117.63555">
				<ele>0</ele>
				<Speed></Speed>
			</trkpt>
			<trkpt lat="31.657525" lon="117.636108">
				<ele>0</ele>
				<Speed></Speed>
			</trkpt>
			<trkpt lat="31.657962" lon="117.636741">
				<ele>0</ele>
				<Speed></Speed>
			</trkpt>
			<trkpt lat="31.658279" lon="117.637428">
				<ele>0</ele>
				<Speed></Speed>
			</trkpt>
			<trkpt lat="31.658622" lon="117.638983">
				<ele>0</ele>
				<Speed></Speed>
			</trkpt>
			<trkpt lat="31.659472" lon="117.649101">
				<ele>0</ele>
				<Speed></Speed>
			</trkpt>
			<trkpt lat="31.659912" lon="117.652823">
				<ele>0</ele>
				<Speed></Speed>
			</trkpt>
			<trkpt lat="31.6605" lon="117.655591">
				<ele>0</ele>
				<Speed></Speed>
			</trkpt>
			<trkpt lat="31.662578" lon="117.663069">
				<ele>0</ele>
				<Speed></Speed>
			</trkpt>
			<trkpt lat="31.662999" lon="117.665312">
				<ele>0</ele>
				<Speed></Speed>
			</trkpt>
			<trkpt lat="31.663128" lon="117.667522">
				<ele>0</ele>
				<Speed></Speed>
			</trkpt>
			<trkpt lat="31.663037" lon="117.669324">
				<ele>0</ele>
				<Speed></Speed>
			</trkpt>
			<trkpt lat="31.66245" lon="117.674453">
				<ele>0</ele>
				<Speed></Speed>
			</trkpt>
			<trkpt lat="31.661766" lon="117.678004">
				<ele>0</ele>
				<Speed></Speed>
			</trkpt>
			<trkpt lat="31.661945" lon="117.683057">
				<ele>0</ele>
				<Speed></Speed>
			</trkpt>
			<trkpt lat="31.662294" lon="117.685825">
				<ele>0</ele>
				<Speed></Speed>
			</trkpt>
			<trkpt lat="31.66227" lon="117.686909">
				<ele>0</ele>
				<Speed></Speed>
			</trkpt>
			<trkpt lat="31.661961" lon="117.688046">
				<ele>0</ele>
				<Speed></Speed>
			</trkpt>
			<trkpt lat="31.659679" lon="117.69325">
				<ele>0</ele>
				<Speed></Speed>
			</trkpt>
			<trkpt lat="31.659011" lon="117.694966">
				<ele>0</ele>
				<Speed></Speed>
			</trkpt>
			<trkpt lat="31.658491" lon="117.696833">
				<ele>0</ele>
				<Speed></Speed>
			</trkpt>
			<trkpt lat="31.658212" lon="117.698507">
				<ele>0</ele>
				<Speed></Speed>
			</trkpt>
			<trkpt lat="31.658064" lon="117.70032">
				<ele>0</ele>
				<Speed></Speed>
			</trkpt>
			<trkpt lat="31.657962" lon="117.705631">
				<ele>0</ele>
				<Speed></Speed>
			</trkpt>
			<trkpt lat="31.65764" lon="117.710019">
				<ele>0</ele>
				<Speed></Speed>
			</trkpt>
			<trkpt lat="31.657651" lon="117.711553">
				<ele>0</ele>
				<Speed></Speed>
			</trkpt>
			<trkpt lat="31.657817" lon="117.713495">
				<ele>0</ele>
				<Speed></Speed>
			</trkpt>
			<trkpt lat="31.657831" lon="117.7146">
				<ele>0</ele>
				<Speed></Speed>
			</trkpt>
			<trkpt lat="31.657506" lon="117.716735">
				<ele>0</ele>
				<Speed></Speed>
			</trkpt>
			<trkpt lat="31.656932" lon="117.718473">
				<ele>0</ele>
				<Speed></Speed>
			</trkpt>
			<trkpt lat="31.653478" lon="117.726713">
				<ele>0</ele>
				<Speed></Speed>
			</trkpt>
			<trkpt lat="31.650345" lon="117.733794">
				<ele>0</ele>
				<Speed></Speed>
			</trkpt>
			<trkpt lat="31.648521" lon="117.737023">
				<ele>0</ele>
				<Speed></Speed>
			</trkpt>
			<trkpt lat="31.647979" lon="117.738128">
				<ele>0</ele>
				<Speed></Speed>
			</trkpt>
			<trkpt lat="31.645651" lon="117.744255">
				<ele>0</ele>
				<Speed></Speed>
			</trkpt>
			<trkpt lat="31.644645" lon="117.746207">
				<ele>0</ele>
				<Speed></Speed>
			</trkpt>
			<trkpt lat="31.644313" lon="117.747269">
				<ele>0</ele>
				<Speed></Speed>
			</trkpt>
			<trkpt lat="31.643452" lon="117.751432">
				<ele>0</ele>
				<Speed></Speed>
			</trkpt>
			<trkpt lat="31.642698" lon="117.753471">
				<ele>0</ele>
				<Speed></Speed>
			</trkpt>
			<trkpt lat="31.640185" lon="117.758299">
				<ele>0</ele>
				<Speed></Speed>
			</trkpt>
			<trkpt lat="31.628656" lon="117.779746">
				<ele>0</ele>
				<Speed></Speed>
			</trkpt>
			<trkpt lat="31.627997" lon="117.780776">
				<ele>0</ele>
				<Speed></Speed>
			</trkpt>
			<trkpt lat="31.627101" lon="117.781966">
				<ele>0</ele>
				<Speed></Speed>
			</trkpt>
			<trkpt lat="31.624073" lon="117.785485">
				<ele>0</ele>
				<Speed></Speed>
			</trkpt>
			<trkpt lat="31.622785" lon="117.787578">
				<ele>0</ele>
				<Speed></Speed>
			</trkpt>
			<trkpt lat="31.622077" lon="117.78909">
				<ele>0</ele>
				<Speed></Speed>
			</trkpt>
			<trkpt lat="31.6209" lon="117.792234">
				<ele>0</ele>
				<Speed></Speed>
			</trkpt>
			<trkpt lat="31.6198" lon="117.793983">
				<ele>0</ele>
				<Speed></Speed>
			</trkpt>
			<trkpt lat="31.619084" lon="117.795764">
				<ele>0</ele>
				<Speed></Speed>
			</trkpt>
			<trkpt lat="31.61852" lon="117.796783">
				<ele>0</ele>
				<Speed></Speed>
			</trkpt>
			<trkpt lat="31.61793" lon="117.797362">
				<ele>0</ele>
				<Speed></Speed>
			</trkpt>
			<trkpt lat="31.6166" lon="117.798371">
				<ele>0</ele>
				<Speed></Speed>
			</trkpt>
			<trkpt lat="31.616182" lon="117.798929">
				<ele>0</ele>
				<Speed></Speed>
			</trkpt>
			<trkpt lat="31.615865" lon="117.799047">
				<ele>0</ele>
				<Speed></Speed>
			</trkpt>
			<trkpt lat="31.615586" lon="117.799025">
				<ele>0</ele>
				<Speed></Speed>
			</trkpt>
			<trkpt lat="31.614285" lon="117.798585">
				<ele>0</ele>
				<Speed></Speed>
			</trkpt>
			<trkpt lat="31.613553" lon="117.798467">
				<ele>0</ele>
				<Speed></Speed>
			</trkpt>
			<trkpt lat="31.613019" lon="117.798607">
				<ele>0</ele>
				<Speed></Speed>
			</trkpt>
			<trkpt lat="31.612145" lon="117.798478">
				<ele>0</ele>
				<Speed></Speed>
			</trkpt>
			<trkpt lat="31.611785" lon="117.798575">
				<ele>0</ele>
				<Speed></Speed>
			</trkpt>
			<trkpt lat="31.611493" lon="117.798532">
				<ele>0</ele>
				<Speed></Speed>
			</trkpt>
			<trkpt lat="31.610865" lon="117.798811">
				<ele>0</ele>
				<Speed></Speed>
			</trkpt>
			<trkpt lat="31.610377" lon="117.798682">
				<ele>0</ele>
				<Speed></Speed>
			</trkpt>
			<trkpt lat="31.609838" lon="117.798682">
				<ele>0</ele>
				<Speed></Speed>
			</trkpt>
			<trkpt lat="31.609106" lon="117.798467">
				<ele>0</ele>
				<Speed></Speed>
			</trkpt>
			<trkpt lat="31.608816" lon="117.798521">
				<ele>0</ele>
				<Speed></Speed>
			</trkpt>
			<trkpt lat="31.608543" lon="117.798736">
				<ele>0</ele>
				<Speed></Speed>
			</trkpt>
			<trkpt lat="31.6085" lon="117.799208">
				<ele>0</ele>
				<Speed></Speed>
			</trkpt>
			<trkpt lat="31.608854" lon="117.800559">
				<ele>0</ele>
				<Speed></Speed>
			</trkpt>
			<trkpt lat="31.609213" lon="117.800967">
				<ele>0</ele>
				<Speed></Speed>
			</trkpt>
			<trkpt lat="31.60932" lon="117.801235">
				<ele>0</ele>
				<Speed></Speed>
			</trkpt>
			<trkpt lat="31.609672" lon="117.802931">
				<ele>0</ele>
				<Speed></Speed>
			</trkpt>
			<trkpt lat="31.609645" lon="117.803317">
				<ele>0</ele>
				<Speed></Speed>
			</trkpt>
			<trkpt lat="31.609393" lon="117.803767">
				<ele>0</ele>
				<Speed></Speed>
			</trkpt>
			<trkpt lat="31.609409" lon="117.80425">
				<ele>0</ele>
				<Speed></Speed>
			</trkpt>
			<trkpt lat="31.609125" lon="117.804379">
				<ele>0</ele>
				<Speed></Speed>
			</trkpt>
			<trkpt lat="31.608331" lon="117.804325">
				<ele>0</ele>
				<Speed></Speed>
			</trkpt>
			<trkpt lat="31.605485" lon="117.803328">
				<ele>0</ele>
				<Speed></Speed>
			</trkpt>
			<trkpt lat="31.605168" lon="117.803328">
				<ele>0</ele>
				<Speed></Speed>
			</trkpt>
			<trkpt lat="31.604906" lon="117.803424">
				<ele>0</ele>
				<Speed></Speed>
			</trkpt>
			<trkpt lat="31.604554" lon="117.803843">
				<ele>0</ele>
				<Speed></Speed>
			</trkpt>
			<trkpt lat="31.598806" lon="117.818348">
				<ele>0</ele>
				<Speed></Speed>
			</trkpt>
			<trkpt lat="31.598817" lon="117.81852">
				<ele>0</ele>
				<Speed></Speed>
			</trkpt>
			<trkpt lat="31.598927" lon="117.818648">
				<ele>0</ele>
				<Speed></Speed>
			</trkpt>
			<trkpt lat="31.601108" lon="117.820183">
				<ele>0</ele>
				<Speed></Speed>
			</trkpt>
			<trkpt lat="31.602792" lon="117.821019">
				<ele>0</ele>
				<Speed></Speed>
			</trkpt>
			<trkpt lat="31.60302" lon="117.821384">
				<ele>0</ele>
				<Speed></Speed>
			</trkpt>
			<trkpt lat="31.602988" lon="117.821792">
				<ele>0</ele>
				<Speed></Speed>
			</trkpt>
			<trkpt lat="31.60254" lon="117.823337">
				<ele>0</ele>
				<Speed></Speed>
			</trkpt>
			<trkpt lat="31.602239" lon="117.823895">
				<ele>0</ele>
				<Speed></Speed>
			</trkpt>
			<trkpt lat="31.601432" lon="117.824957">
				<ele>0</ele>
				<Speed></Speed>
			</trkpt>
			<trkpt lat="31.601204" lon="117.825762">
				<ele>0</ele>
				<Speed></Speed>
			</trkpt>
			<trkpt lat="31.601344" lon="117.826834">
				<ele>0</ele>
				<Speed></Speed>
			</trkpt>
			<trkpt lat="31.601743" lon="117.827789">
				<ele>0</ele>
				<Speed></Speed>
			</trkpt>
			<trkpt lat="31.602494" lon="117.828873">
				<ele>0</ele>
				<Speed></Speed>
			</trkpt>
			<trkpt lat="31.603251" lon="117.829227">
				<ele>0</ele>
				<Speed></Speed>
			</trkpt>
			<trkpt lat="31.603315" lon="117.829366">
				<ele>0</ele>
				<Speed></Speed>
			</trkpt>
			<trkpt lat="31.602926" lon="117.830622">
				<ele>0</ele>
				<Speed></Speed>
			</trkpt>
			<trkpt lat="31.602677" lon="117.831813">
				<ele>0</ele>
				<Speed></Speed>
			</trkpt>
			<trkpt lat="31.602433" lon="117.832328">
				<ele>0</ele>
				<Speed></Speed>
			</trkpt>
			<trkpt lat="31.601765" lon="117.833143">
				<ele>0</ele>
				<Speed></Speed>
			</trkpt>
			<trkpt lat="31.601617" lon="117.833797">
				<ele>0</ele>
				<Speed></Speed>
			</trkpt>
			<trkpt lat="31.601057" lon="117.834023">
				<ele>0</ele>
				<Speed></Speed>
			</trkpt>
			<trkpt lat="31.59949" lon="117.835235">
				<ele>0</ele>
				<Speed></Speed>
			</trkpt>
			<trkpt lat="31.599345" lon="117.835546">
				<ele>0</ele>
				<Speed></Speed>
			</trkpt>
			<trkpt lat="31.599214" lon="117.836351">
				<ele>0</ele>
				<Speed></Speed>
			</trkpt>
			<trkpt lat="31.598771" lon="117.837553">
				<ele>0</ele>
				<Speed></Speed>
			</trkpt>
			<trkpt lat="31.598508" lon="117.838057">
				<ele>0</ele>
				<Speed></Speed>
			</trkpt>
			<trkpt lat="31.597977" lon="117.838582">
				<ele>0</ele>
				<Speed></Speed>
			</trkpt>
			<trkpt lat="31.596784" lon="117.839409">
				<ele>0</ele>
				<Speed></Speed>
			</trkpt>
			<trkpt lat="31.595145" lon="117.840213">
				<ele>0</ele>
				<Speed></Speed>
			</trkpt>
			<trkpt lat="31.594917" lon="117.840245">
				<ele>0</ele>
				<Speed></Speed>
			</trkpt>
			<trkpt lat="31.594437" lon="117.84002">
				<ele>0</ele>
				<Speed></Speed>
			</trkpt>
			<trkpt lat="31.594193" lon="117.840063">
				<ele>0</ele>
				<Speed></Speed>
			</trkpt>
			<trkpt lat="31.594045" lon="117.840181">
				<ele>0</ele>
				<Speed></Speed>
			</trkpt>
			<trkpt lat="31.593804" lon="117.84046">
				<ele>0</ele>
				<Speed></Speed>
			</trkpt>
			<trkpt lat="31.593788" lon="117.840632">
				<ele>0</ele>
				<Speed></Speed>
			</trkpt>
			<trkpt lat="31.59411" lon="117.84076">
				<ele>0</ele>
				<Speed></Speed>
			</trkpt>
			<trkpt lat="31.594745" lon="117.840793">
				<ele>0</ele>
				<Speed></Speed>
			</trkpt>
			<trkpt lat="31.594737" lon="117.840857">
				<ele>0</ele>
				<Speed></Speed>
			</trkpt>
			<trkpt lat="31.59467" lon="117.840825">
				<ele>0</ele>
				<Speed></Speed>
			</trkpt>
			<trkpt lat="31.594751" lon="117.840803">
				<ele>0</ele>
				<Speed></Speed>
			</trkpt>
			<trkpt lat="31.594761" lon="117.840878">
				<ele>0</ele>
				<Speed></Speed>
			</trkpt>
			<trkpt lat="31.594633" lon="117.840889">
				<ele>0</ele>
				<Speed></Speed>
			</trkpt>
			<trkpt lat="31.594592" lon="117.841039">
				<ele>0</ele>
				<Speed></Speed>
			</trkpt>
			<trkpt lat="31.585411" lon="117.840728">
				<ele>0</ele>
				<Speed></Speed>
			</trkpt>
			<trkpt lat="31.584666" lon="117.840567">
				<ele>0</ele>
				<Speed></Speed>
			</trkpt>
			<trkpt lat="31.583705" lon="117.840514">
				<ele>0</ele>
				<Speed></Speed>
			</trkpt>
			<trkpt lat="31.58359" lon="117.840417">
				<ele>0</ele>
				<Speed></Speed>
			</trkpt>
			<trkpt lat="31.583402" lon="117.839881">
				<ele>0</ele>
				<Speed></Speed>
			</trkpt>
			<trkpt lat="31.582716" lon="117.839827">
				<ele>0</ele>
				<Speed></Speed>
			</trkpt>
			<trkpt lat="31.582453" lon="117.839698">
				<ele>0</ele>
				<Speed></Speed>
			</trkpt>
			<trkpt lat="31.581286" lon="117.838186">
				<ele>0</ele>
				<Speed></Speed>
			</trkpt>
			<trkpt lat="31.58091" lon="117.837306">
				<ele>0</ele>
				<Speed></Speed>
			</trkpt>
			<trkpt lat="31.580835" lon="117.837316">
				<ele>0</ele>
				<Speed></Speed>
			</trkpt>
			<trkpt lat="31.580336" lon="117.836405">
				<ele>0</ele>
				<Speed></Speed>
			</trkpt>
			<trkpt lat="31.579768" lon="117.834988">
				<ele>0</ele>
				<Speed></Speed>
			</trkpt>
			<trkpt lat="31.577601" lon="117.826244">
				<ele>0</ele>
				<Speed></Speed>
			</trkpt>
			<trkpt lat="31.57707" lon="117.824259">
				<ele>0</ele>
				<Speed></Speed>
			</trkpt>
			<trkpt lat="31.57667" lon="117.823165">
				<ele>0</ele>
				<Speed></Speed>
			</trkpt>
			<trkpt lat="31.576045" lon="117.82058">
				<ele>0</ele>
				<Speed></Speed>
			</trkpt>
			<trkpt lat="31.575661" lon="117.819517">
				<ele>0</ele>
				<Speed></Speed>
			</trkpt>
			<trkpt lat="31.57476" lon="117.817468">
				<ele>0</ele>
				<Speed></Speed>
			</trkpt>
			<trkpt lat="31.574245" lon="117.815719">
				<ele>0</ele>
				<Speed></Speed>
			</trkpt>
			<trkpt lat="31.573964" lon="117.814046">
				<ele>0</ele>
				<Speed></Speed>
			</trkpt>
			<trkpt lat="31.573827" lon="117.811117">
				<ele>0</ele>
				<Speed></Speed>
			</trkpt>
			<trkpt lat="31.573604" lon="117.81014">
				<ele>0</ele>
				<Speed></Speed>
			</trkpt>
			<trkpt lat="31.573317" lon="117.809379">
				<ele>0</ele>
				<Speed></Speed>
			</trkpt>
			<trkpt lat="31.572861" lon="117.808542">
				<ele>0</ele>
				<Speed></Speed>
			</trkpt>
			<trkpt lat="31.569865" lon="117.804325">
				<ele>0</ele>
				<Speed></Speed>
			</trkpt>
			<trkpt lat="31.568173" lon="117.800817">
				<ele>0</ele>
				<Speed></Speed>
			</trkpt>
			<trkpt lat="31.567532" lon="117.799873">
				<ele>0</ele>
				<Speed></Speed>
			</trkpt>
			<trkpt lat="31.56699" lon="117.799315">
				<ele>0</ele>
				<Speed></Speed>
			</trkpt>
			<trkpt lat="31.558777" lon="117.792094">
				<ele>0</ele>
				<Speed></Speed>
			</trkpt>
			<trkpt lat="31.558211" lon="117.79144">
				<ele>0</ele>
				<Speed></Speed>
			</trkpt>
			<trkpt lat="31.557798" lon="117.790796">
				<ele>0</ele>
				<Speed></Speed>
			</trkpt>
			<trkpt lat="31.557468" lon="117.790035">
				<ele>0</ele>
				<Speed></Speed>
			</trkpt>
			<trkpt lat="31.557232" lon="117.789198">
				<ele>0</ele>
				<Speed></Speed>
			</trkpt>
			<trkpt lat="31.556065" lon="117.782438">
				<ele>0</ele>
				<Speed></Speed>
			</trkpt>
			<trkpt lat="31.555612" lon="117.780872">
				<ele>0</ele>
				<Speed></Speed>
			</trkpt>
			<trkpt lat="31.551334" lon="117.771581">
				<ele>0</ele>
				<Speed></Speed>
			</trkpt>
			<trkpt lat="31.54782" lon="117.76495">
				<ele>0</ele>
				<Speed></Speed>
			</trkpt>
			<trkpt lat="31.544832" lon="117.758781">
				<ele>0</ele>
				<Speed></Speed>
			</trkpt>
			<trkpt lat="31.542944" lon="117.754189">
				<ele>0</ele>
				<Speed></Speed>
			</trkpt>
			<trkpt lat="31.542461" lon="117.753374">
				<ele>0</ele>
				<Speed></Speed>
			</trkpt>
			<trkpt lat="31.541619" lon="117.752355">
				<ele>0</ele>
				<Speed></Speed>
			</trkpt>
			<trkpt lat="31.54005" lon="117.750799">
				<ele>0</ele>
				<Speed></Speed>
			</trkpt>
			<trkpt lat="31.539551" lon="117.750402">
				<ele>0</ele>
				<Speed></Speed>
			</trkpt>
			<trkpt lat="31.538132" lon="117.749533">
				<ele>0</ele>
				<Speed></Speed>
			</trkpt>
			<trkpt lat="31.537335" lon="117.748868">
				<ele>0</ele>
				<Speed></Speed>
			</trkpt>
			<trkpt lat="31.536399" lon="117.747999">
				<ele>0</ele>
				<Speed></Speed>
			</trkpt>
			<trkpt lat="31.53519" lon="117.746658">
				<ele>0</ele>
				<Speed></Speed>
			</trkpt>
			<trkpt lat="31.534675" lon="117.746368">
				<ele>0</ele>
				<Speed></Speed>
			</trkpt>
			<trkpt lat="31.532542" lon="117.746003">
				<ele>0</ele>
				<Speed></Speed>
			</trkpt>
			<trkpt lat="31.532258" lon="117.745864">
				<ele>0</ele>
				<Speed></Speed>
			</trkpt>
			<trkpt lat="31.531791" lon="117.745349">
				<ele>0</ele>
				<Speed></Speed>
			</trkpt>
			<trkpt lat="31.53096" lon="117.744029">
				<ele>0</ele>
				<Speed></Speed>
			</trkpt>
			<trkpt lat="31.530689" lon="117.743386">
				<ele>0</ele>
				<Speed></Speed>
			</trkpt>
			<trkpt lat="31.52938" lon="117.738204">
				<ele>0</ele>
				<Speed></Speed>
			</trkpt>
			<trkpt lat="31.528736" lon="117.736219">
				<ele>0</ele>
				<Speed></Speed>
			</trkpt>
			<trkpt lat="31.528312" lon="117.735232">
				<ele>0</ele>
				<Speed></Speed>
			</trkpt>
			<trkpt lat="31.527269" lon="117.733376">
				<ele>0</ele>
				<Speed></Speed>
			</trkpt>
			<trkpt lat="31.526746" lon="117.732603">
				<ele>0</ele>
				<Speed></Speed>
			</trkpt>
			<trkpt lat="31.52581" lon="117.731466">
				<ele>0</ele>
				<Speed></Speed>
			</trkpt>
			<trkpt lat="31.522428" lon="117.728075">
				<ele>0</ele>
				<Speed></Speed>
			</trkpt>
			<trkpt lat="31.521237" lon="117.726713">
				<ele>0</ele>
				<Speed></Speed>
			</trkpt>
			<trkpt lat="31.517887" lon="117.722282">
				<ele>0</ele>
				<Speed></Speed>
			</trkpt>
			<trkpt lat="31.515317" lon="117.718602">
				<ele>0</ele>
				<Speed></Speed>
			</trkpt>
			<trkpt lat="31.509349" lon="117.711403">
				<ele>0</ele>
				<Speed></Speed>
			</trkpt>
			<trkpt lat="31.508083" lon="117.709622">
				<ele>0</ele>
				<Speed></Speed>
			</trkpt>
			<trkpt lat="31.506511" lon="117.707144">
				<ele>0</ele>
				<Speed></Speed>
			</trkpt>
			<trkpt lat="31.503051" lon="117.70091">
				<ele>0</ele>
				<Speed></Speed>
			</trkpt>
			<trkpt lat="31.501885" lon="117.699301">
				<ele>0</ele>
				<Speed></Speed>
			</trkpt>
			<trkpt lat="31.501077" lon="117.698357">
				<ele>0</ele>
				<Speed></Speed>
			</trkpt>
			<trkpt lat="31.498706" lon="117.696028">
				<ele>0</ele>
				<Speed></Speed>
			</trkpt>
			<trkpt lat="31.494444" lon="117.692037">
				<ele>0</ele>
				<Speed></Speed>
			</trkpt>
			<trkpt lat="31.492811" lon="117.690761">
				<ele>0</ele>
				<Speed></Speed>
			</trkpt>
			<trkpt lat="31.49184" lon="117.690128">
				<ele>0</ele>
				<Speed></Speed>
			</trkpt>
			<trkpt lat="31.489337" lon="117.688808">
				<ele>0</ele>
				<Speed></Speed>
			</trkpt>
			<trkpt lat="31.475336" lon="117.681952">
				<ele>0</ele>
				<Speed></Speed>
			</trkpt>
			<trkpt lat="31.47448" lon="117.681416">
				<ele>0</ele>
				<Speed></Speed>
			</trkpt>
			<trkpt lat="31.473566" lon="117.68059">
				<ele>0</ele>
				<Speed></Speed>
			</trkpt>
			<trkpt lat="31.466673" lon="117.672425">
				<ele>0</ele>
				<Speed></Speed>
			</trkpt>
			<trkpt lat="31.464712" lon="117.670526">
				<ele>0</ele>
				<Speed></Speed>
			</trkpt>
			<trkpt lat="31.46263" lon="117.668766">
				<ele>0</ele>
				<Speed></Speed>
			</trkpt>
			<trkpt lat="31.461407" lon="117.667458">
				<ele>0</ele>
				<Speed></Speed>
			</trkpt>
			<trkpt lat="31.45677" lon="117.660934">
				<ele>0</ele>
				<Speed></Speed>
			</trkpt>
			<trkpt lat="31.456268" lon="117.660022">
				<ele>0</ele>
				<Speed></Speed>
			</trkpt>
			<trkpt lat="31.45589" lon="117.658917">
				<ele>0</ele>
				<Speed></Speed>
			</trkpt>
			<trkpt lat="31.455675" lon="117.657651">
				<ele>0</ele>
				<Speed></Speed>
			</trkpt>
			<trkpt lat="31.455665" lon="117.656106">
				<ele>0</ele>
				<Speed></Speed>
			</trkpt>
			<trkpt lat="31.456716" lon="117.650989">
				<ele>0</ele>
				<Speed></Speed>
			</trkpt>
			<trkpt lat="31.456864" lon="117.649219">
				<ele>0</ele>
				<Speed></Speed>
			</trkpt>
			<trkpt lat="31.456754" lon="117.647985">
				<ele>0</ele>
				<Speed></Speed>
			</trkpt>
			<trkpt lat="31.456507" lon="117.646955">
				<ele>0</ele>
				<Speed></Speed>
			</trkpt>
			<trkpt lat="31.45608" lon="117.645871">
				<ele>0</ele>
				<Speed></Speed>
			</trkpt>
			<trkpt lat="31.455673" lon="117.645142">
				<ele>0</ele>
				<Speed></Speed>
			</trkpt>
			<trkpt lat="31.454745" lon="117.643972">
				<ele>0</ele>
				<Speed></Speed>
			</trkpt>
			<trkpt lat="31.445255" lon="117.63363">
				<ele>0</ele>
				<Speed></Speed>
			</trkpt>
			<trkpt lat="31.443391" lon="117.631881">
				<ele>0</ele>
				<Speed></Speed>
			</trkpt>
			<trkpt lat="31.435661" lon="117.625497">
				<ele>0</ele>
				<Speed></Speed>
			</trkpt>
			<trkpt lat="31.434816" lon="117.624639">
				<ele>0</ele>
				<Speed></Speed>
			</trkpt>
			<trkpt lat="31.433751" lon="117.623158">
				<ele>0</ele>
				<Speed></Speed>
			</trkpt>
			<trkpt lat="31.43344" lon="117.622579">
				<ele>0</ele>
				<Speed></Speed>
			</trkpt>
			<trkpt lat="31.433019" lon="117.621635">
				<ele>0</ele>
				<Speed></Speed>
			</trkpt>
			<trkpt lat="31.432617" lon="117.620412">
				<ele>0</ele>
				<Speed></Speed>
			</trkpt>
			<trkpt lat="31.432359" lon="117.619199">
				<ele>0</ele>
				<Speed></Speed>
			</trkpt>
			<trkpt lat="31.43226" lon="117.618309">
				<ele>0</ele>
				<Speed></Speed>
			</trkpt>
			<trkpt lat="31.431825" lon="117.603224">
				<ele>0</ele>
				<Speed></Speed>
			</trkpt>
			<trkpt lat="31.431514" lon="117.598814">
				<ele>0</ele>
				<Speed></Speed>
			</trkpt>
			<trkpt lat="31.431117" lon="117.595725">
				<ele>0</ele>
				<Speed></Speed>
			</trkpt>
			<trkpt lat="31.430712" lon="117.593343">
				<ele>0</ele>
				<Speed></Speed>
			</trkpt>
			<trkpt lat="31.430036" lon="117.590178">
				<ele>0</ele>
				<Speed></Speed>
			</trkpt>
			<trkpt lat="31.425479" lon="117.572786">
				<ele>0</ele>
				<Speed></Speed>
			</trkpt>
			<trkpt lat="31.424712" lon="117.568935">
				<ele>0</ele>
				<Speed></Speed>
			</trkpt>
			<trkpt lat="31.424095" lon="117.564246">
				<ele>0</ele>
				<Speed></Speed>
			</trkpt>
			<trkpt lat="31.42384" lon="117.559161">
				<ele>0</ele>
				<Speed></Speed>
			</trkpt>
			<trkpt lat="31.423891" lon="117.555449">
				<ele>0</ele>
				<Speed></Speed>
			</trkpt>
			<trkpt lat="31.42424" lon="117.551382">
				<ele>0</ele>
				<Speed></Speed>
			</trkpt>
			<trkpt lat="31.424565" lon="117.548797">
				<ele>0</ele>
				<Speed></Speed>
			</trkpt>
			<trkpt lat="31.42505" lon="117.545932">
				<ele>0</ele>
				<Speed></Speed>
			</trkpt>
			<trkpt lat="31.42534" lon="117.543121">
				<ele>0</ele>
				<Speed></Speed>
			</trkpt>
			<trkpt lat="31.425426" lon="117.540471">
				<ele>0</ele>
				<Speed></Speed>
			</trkpt>
			<trkpt lat="31.425321" lon="117.537639">
				<ele>0</ele>
				<Speed></Speed>
			</trkpt>
			<trkpt lat="31.425552" lon="117.537263">
				<ele>0</ele>
				<Speed></Speed>
			</trkpt>
			<trkpt lat="31.427043" lon="117.536351">
				<ele>0</ele>
				<Speed></Speed>
			</trkpt>
			<trkpt lat="31.427974" lon="117.535536">
				<ele>0</ele>
				<Speed></Speed>
			</trkpt>
			<trkpt lat="31.428451" lon="117.53501">
				<ele>0</ele>
				<Speed></Speed>
			</trkpt>
			<trkpt lat="31.429352" lon="117.533712">
				<ele>0</ele>
				<Speed></Speed>
			</trkpt>
			<trkpt lat="31.430637" lon="117.531459">
				<ele>0</ele>
				<Speed></Speed>
			</trkpt>
			<trkpt lat="31.431117" lon="117.530461">
				<ele>0</ele>
				<Speed></Speed>
			</trkpt>
			<trkpt lat="31.43141" lon="117.529624">
				<ele>0</ele>
				<Speed></Speed>
			</trkpt>
			<trkpt lat="31.432034" lon="117.525869">
				<ele>0</ele>
				<Speed></Speed>
			</trkpt>
			<trkpt lat="31.432472" lon="117.524378">
				<ele>0</ele>
				<Speed></Speed>
			</trkpt>
			<trkpt lat="31.432866" lon="117.523401">
				<ele>0</ele>
				<Speed></Speed>
			</trkpt>
			<trkpt lat="31.43366" lon="117.521889">
				<ele>0</ele>
				<Speed></Speed>
			</trkpt>
			<trkpt lat="31.436262" lon="117.517973">
				<ele>0</ele>
				<Speed></Speed>
			</trkpt>
			<trkpt lat="31.437919" lon="117.515001">
				<ele>0</ele>
				<Speed></Speed>
			</trkpt>
			<trkpt lat="31.438955" lon="117.513402">
				<ele>0</ele>
				<Speed></Speed>
			</trkpt>
			<trkpt lat="31.440545" lon="117.511503">
				<ele>0</ele>
				<Speed></Speed>
			</trkpt>
			<trkpt lat="31.443576" lon="117.508521">
				<ele>0</ele>
				<Speed></Speed>
			</trkpt>
			<trkpt lat="31.445108" lon="117.506654">
				<ele>0</ele>
				<Speed></Speed>
			</trkpt>
			<trkpt lat="31.446317" lon="117.505409">
				<ele>0</ele>
				<Speed></Speed>
			</trkpt>
			<trkpt lat="31.446988" lon="117.504551">
				<ele>0</ele>
				<Speed></Speed>
			</trkpt>
			<trkpt lat="31.447578" lon="117.50351">
				<ele>0</ele>
				<Speed></Speed>
			</trkpt>
			<trkpt lat="31.448546" lon="117.501343">
				<ele>0</ele>
				<Speed></Speed>
			</trkpt>
			<trkpt lat="31.450756" lon="117.498199">
				<ele>0</ele>
				<Speed></Speed>
			</trkpt>
			<trkpt lat="31.453565" lon="117.493264">
				<ele>0</ele>
				<Speed></Speed>
			</trkpt>
			<trkpt lat="31.454259" lon="117.492234">
				<ele>0</ele>
				<Speed></Speed>
			</trkpt>
			<trkpt lat="31.455051" lon="117.49143">
				<ele>0</ele>
				<Speed></Speed>
			</trkpt>
			<trkpt lat="31.457089" lon="117.490078">
				<ele>0</ele>
				<Speed></Speed>
			</trkpt>
			<trkpt lat="31.457628" lon="117.489627">
				<ele>0</ele>
				<Speed></Speed>
			</trkpt>
			<trkpt lat="31.458049" lon="117.489069">
				<ele>0</ele>
				<Speed></Speed>
			</trkpt>
			<trkpt lat="31.458752" lon="117.487524">
				<ele>0</ele>
				<Speed></Speed>
			</trkpt>
			<trkpt lat="31.45917" lon="117.486934">
				<ele>0</ele>
				<Speed></Speed>
			</trkpt>
			<trkpt lat="31.463886" lon="117.482514">
				<ele>0</ele>
				<Speed></Speed>
			</trkpt>
			<trkpt lat="31.464428" lon="117.481902">
				<ele>0</ele>
				<Speed></Speed>
			</trkpt>
			<trkpt lat="31.465069" lon="117.480894">
				<ele>0</ele>
				<Speed></Speed>
			</trkpt>
			<trkpt lat="31.465431" lon="117.480025">
				<ele>0</ele>
				<Speed></Speed>
			</trkpt>
			<trkpt lat="31.465761" lon="117.478652">
				<ele>0</ele>
				<Speed></Speed>
			</trkpt>
			<trkpt lat="31.466348" lon="117.473866">
				<ele>0</ele>
				<Speed></Speed>
			</trkpt>
			<trkpt lat="31.466327" lon="117.472397">
				<ele>0</ele>
				<Speed></Speed>
			</trkpt>
			<trkpt lat="31.466187" lon="117.471581">
				<ele>0</ele>
				<Speed></Speed>
			</trkpt>
			<trkpt lat="31.465892" lon="117.470573">
				<ele>0</ele>
				<Speed></Speed>
			</trkpt>
			<trkpt lat="31.463575" lon="117.464554">
				<ele>0</ele>
				<Speed></Speed>
			</trkpt>
			<trkpt lat="31.463263" lon="117.463181">
				<ele>0</ele>
				<Speed></Speed>
			</trkpt>
			<trkpt lat="31.463132" lon="117.461485">
				<ele>0</ele>
				<Speed></Speed>
			</trkpt>
			<trkpt lat="31.463258" lon="117.459822">
				<ele>0</ele>
				<Speed></Speed>
			</trkpt>
			<trkpt lat="31.463588" lon="117.458395">
				<ele>0</ele>
				<Speed></Speed>
			</trkpt>
			<trkpt lat="31.46425" lon="117.456754">
				<ele>0</ele>
				<Speed></Speed>
			</trkpt>
			<trkpt lat="31.464897" lon="117.455756">
				<ele>0</ele>
				<Speed></Speed>
			</trkpt>
			<trkpt lat="31.46557" lon="117.45507">
				<ele>0</ele>
				<Speed></Speed>
			</trkpt>
			<trkpt lat="31.466163" lon="117.454673">
				<ele>0</ele>
				<Speed></Speed>
			</trkpt>
			<trkpt lat="31.467673" lon="117.454061">
				<ele>0</ele>
				<Speed></Speed>
			</trkpt>
			<trkpt lat="31.468107" lon="117.453814">
				<ele>0</ele>
				<Speed></Speed>
			</trkpt>
			<trkpt lat="31.468625" lon="117.453353">
				<ele>0</ele>
				<Speed></Speed>
			</trkpt>
			<trkpt lat="31.469266" lon="117.452473">
				<ele>0</ele>
				<Speed></Speed>
			</trkpt>
			<trkpt lat="31.469652" lon="117.452108">
				<ele>0</ele>
				<Speed></Speed>
			</trkpt>
			<trkpt lat="31.472158" lon="117.450864">
				<ele>0</ele>
				<Speed></Speed>
			</trkpt>
			<trkpt lat="31.474236" lon="117.44934">
				<ele>0</ele>
				<Speed></Speed>
			</trkpt>
			<trkpt lat="31.475336" lon="117.448815">
				<ele>0</ele>
				<Speed></Speed>
			</trkpt>
			<trkpt lat="31.48044" lon="117.447087">
				<ele>0</ele>
				<Speed></Speed>
			</trkpt>
			<trkpt lat="31.481132" lon="117.446744">
				<ele>0</ele>
				<Speed></Speed>
			</trkpt>
			<trkpt lat="31.481567" lon="117.446411">
				<ele>0</ele>
				<Speed></Speed>
			</trkpt>
			<trkpt lat="31.482417" lon="117.445446">
				<ele>0</ele>
				<Speed></Speed>
			</trkpt>
			<trkpt lat="31.4833" lon="117.443729">
				<ele>0</ele>
				<Speed></Speed>
			</trkpt>
			<trkpt lat="31.483924" lon="117.442892">
				<ele>0</ele>
				<Speed></Speed>
			</trkpt>
			<trkpt lat="31.484869" lon="117.442098">
				<ele>0</ele>
				<Speed></Speed>
			</trkpt>
			<trkpt lat="31.486684" lon="117.440865">
				<ele>0</ele>
				<Speed></Speed>
			</trkpt>
			<trkpt lat="31.487516" lon="117.439985">
				<ele>0</ele>
				<Speed></Speed>
			</trkpt>
			<trkpt lat="31.488251" lon="117.438708">
				<ele>0</ele>
				<Speed></Speed>
			</trkpt>
			<trkpt lat="31.489238" lon="117.435683">
				<ele>0</ele>
				<Speed></Speed>
			</trkpt>
			<trkpt lat="31.489715" lon="117.434835">
				<ele>0</ele>
				<Speed></Speed>
			</trkpt>
			<trkpt lat="31.490241" lon="117.434159">
				<ele>0</ele>
				<Speed></Speed>
			</trkpt>
			<trkpt lat="31.491137" lon="117.433344">
				<ele>0</ele>
				<Speed></Speed>
			</trkpt>
			<trkpt lat="31.492819" lon="117.432228">
				<ele>0</ele>
				<Speed></Speed>
			</trkpt>
			<trkpt lat="31.494128" lon="117.430983">
				<ele>0</ele>
				<Speed></Speed>
			</trkpt>
			<trkpt lat="31.495412" lon="117.430028">
				<ele>0</ele>
				<Speed></Speed>
			</trkpt>
			<trkpt lat="31.496303" lon="117.429578">
				<ele>0</ele>
				<Speed></Speed>
			</trkpt>
			<trkpt lat="31.499921" lon="117.42829">
				<ele>0</ele>
				<Speed></Speed>
			</trkpt>
			<trkpt lat="31.502544" lon="117.427046">
				<ele>0</ele>
				<Speed></Speed>
			</trkpt>
			<trkpt lat="31.50642" lon="117.425673">
				<ele>0</ele>
				<Speed></Speed>
			</trkpt>
			<trkpt lat="31.508451" lon="117.424696">
				<ele>0</ele>
				<Speed></Speed>
			</trkpt>
			<trkpt lat="31.509872" lon="117.424138">
				<ele>0</ele>
				<Speed></Speed>
			</trkpt>
			<trkpt lat="31.520244" lon="117.421209">
				<ele>0</ele>
				<Speed></Speed>
			</trkpt>
			<trkpt lat="31.521365" lon="117.420576">
				<ele>0</ele>
				<Speed></Speed>
			</trkpt>
			<trkpt lat="31.522138" lon="117.419911">
				<ele>0</ele>
				<Speed></Speed>
			</trkpt>
			<trkpt lat="31.522792" lon="117.419096">
				<ele>0</ele>
				<Speed></Speed>
			</trkpt>
			<trkpt lat="31.523256" lon="117.41828">
				<ele>0</ele>
				<Speed></Speed>
			</trkpt>
			<trkpt lat="31.523589" lon="117.417465">
				<ele>0</ele>
				<Speed></Speed>
			</trkpt>
			<trkpt lat="31.523822" lon="117.416489">
				<ele>0</ele>
				<Speed></Speed>
			</trkpt>
			<trkpt lat="31.523922" lon="117.415405">
				<ele>0</ele>
				<Speed></Speed>
			</trkpt>
			<trkpt lat="31.523892" lon="117.414686">
				<ele>0</ele>
				<Speed></Speed>
			</trkpt>
			<trkpt lat="31.523329" lon="117.411264">
				<ele>0</ele>
				<Speed></Speed>
			</trkpt>
			<trkpt lat="31.523275" lon="117.409901">
				<ele>0</ele>
				<Speed></Speed>
			</trkpt>
			<trkpt lat="31.523565" lon="117.408399">
				<ele>0</ele>
				<Speed></Speed>
			</trkpt>
			<trkpt lat="31.52423" lon="117.407004">
				<ele>0</ele>
				<Speed></Speed>
			</trkpt>
			<trkpt lat="31.524724" lon="117.406361">
				<ele>0</ele>
				<Speed></Speed>
			</trkpt>
			<trkpt lat="31.526054" lon="117.405073">
				<ele>0</ele>
				<Speed></Speed>
			</trkpt>
			<trkpt lat="31.526936" lon="117.403968">
				<ele>0</ele>
				<Speed></Speed>
			</trkpt>
			<trkpt lat="31.531298" lon="117.396758">
				<ele>0</ele>
				<Speed></Speed>
			</trkpt>
			<trkpt lat="31.531818" lon="117.396157">
				<ele>0</ele>
				<Speed></Speed>
			</trkpt>
			<trkpt lat="31.532652" lon="117.39575">
				<ele>0</ele>
				<Speed></Speed>
			</trkpt>
			<trkpt lat="31.533325" lon="117.395728">
				<ele>0</ele>
				<Speed></Speed>
			</trkpt>
			<trkpt lat="31.533806" lon="117.395857">
				<ele>0</ele>
				<Speed></Speed>
			</trkpt>
			<trkpt lat="31.535085" lon="117.396619">
				<ele>0</ele>
				<Speed></Speed>
			</trkpt>
			<trkpt lat="31.535672" lon="117.396705">
				<ele>0</ele>
				<Speed></Speed>
			</trkpt>
			<trkpt lat="31.536346" lon="117.396522">
				<ele>0</ele>
				<Speed></Speed>
			</trkpt>
			<trkpt lat="31.537005" lon="117.395964">
				<ele>0</ele>
				<Speed></Speed>
			</trkpt>
			<trkpt lat="31.538314" lon="117.393668">
				<ele>0</ele>
				<Speed></Speed>
			</trkpt>
			<trkpt lat="31.538937" lon="117.392746">
				<ele>0</ele>
				<Speed></Speed>
			</trkpt>
			<trkpt lat="31.539613" lon="117.391984">
				<ele>0</ele>
				<Speed></Speed>
			</trkpt>
			<trkpt lat="31.542587" lon="117.389184">
				<ele>0</ele>
				<Speed></Speed>
			</trkpt>
			<trkpt lat="31.543319" lon="117.388229">
				<ele>0</ele>
				<Speed></Speed>
			</trkpt>
			<trkpt lat="31.543824" lon="117.387124">
				<ele>0</ele>
				<Speed></Speed>
			</trkpt>
			<trkpt lat="31.54417" lon="117.386008">
				<ele>0</ele>
				<Speed></Speed>
			</trkpt>
			<trkpt lat="31.544325" lon="117.384753">
				<ele>0</ele>
				<Speed></Speed>
			</trkpt>
			<trkpt lat="31.544298" lon="117.3831">
				<ele>0</ele>
				<Speed></Speed>
			</trkpt>
			<trkpt lat="31.54454" lon="117.382543">
				<ele>0</ele>
				<Speed></Speed>
			</trkpt>
			<trkpt lat="31.545028" lon="117.382253">
				<ele>0</ele>
				<Speed></Speed>
			</trkpt>
			<trkpt lat="31.547592" lon="117.382178">
				<ele>0</ele>
				<Speed></Speed>
			</trkpt>
			<trkpt lat="31.548072" lon="117.38191">
				<ele>0</ele>
				<Speed></Speed>
			</trkpt>
			<trkpt lat="31.548287" lon="117.381545">
				<ele>0</ele>
				<Speed></Speed>
			</trkpt>
			<trkpt lat="31.54837" lon="117.38118">
				<ele>0</ele>
				<Speed></Speed>
			</trkpt>
			<trkpt lat="31.548362" lon="117.380622">
				<ele>0</ele>
				<Speed></Speed>
			</trkpt>
			<trkpt lat="31.547997" lon="117.375451">
				<ele>0</ele>
				<Speed></Speed>
			</trkpt>
			<trkpt lat="31.547742" lon="117.374153">
				<ele>0</ele>
				<Speed></Speed>
			</trkpt>
			<trkpt lat="31.547104" lon="117.373305">
				<ele>0</ele>
				<Speed></Speed>
			</trkpt>
			<trkpt lat="31.546916" lon="117.372694">
				<ele>0</ele>
				<Speed></Speed>
			</trkpt>
			<trkpt lat="31.546785" lon="117.367887">
				<ele>0</ele>
				<Speed></Speed>
			</trkpt>
			<trkpt lat="31.54664" lon="117.366482">
				<ele>0</ele>
				<Speed></Speed>
			</trkpt>
			<trkpt lat="31.546071" lon="117.3644">
				<ele>0</ele>
				<Speed></Speed>
			</trkpt>
			<trkpt lat="31.54568" lon="117.36351">
				<ele>0</ele>
				<Speed></Speed>
			</trkpt>
			<trkpt lat="31.54491" lon="117.362104">
				<ele>0</ele>
				<Speed></Speed>
			</trkpt>
			<trkpt lat="31.544639" lon="117.361128">
				<ele>0</ele>
				<Speed></Speed>
			</trkpt>
			<trkpt lat="31.544609" lon="117.360409">
				<ele>0</ele>
				<Speed></Speed>
			</trkpt>
			<trkpt lat="31.544679" lon="117.359915">
				<ele>0</ele>
				<Speed></Speed>
			</trkpt>
			<trkpt lat="31.545135" lon="117.358864">
				<ele>0</ele>
				<Speed></Speed>
			</trkpt>
			<trkpt lat="31.545562" lon="117.358328">
				<ele>0</ele>
				<Speed></Speed>
			</trkpt>
			<trkpt lat="31.546117" lon="117.35792">
				<ele>0</ele>
				<Speed></Speed>
			</trkpt>
			<trkpt lat="31.550339" lon="117.35601">
				<ele>0</ele>
				<Speed></Speed>
			</trkpt>
			<trkpt lat="31.551589" lon="117.35527">
				<ele>0</ele>
				<Speed></Speed>
			</trkpt>
			<trkpt lat="31.552635" lon="117.354519">
				<ele>0</ele>
				<Speed></Speed>
			</trkpt>
			<trkpt lat="31.553539" lon="117.353736">
				<ele>0</ele>
				<Speed></Speed>
			</trkpt>
			<trkpt lat="31.554367" lon="117.352877">
				<ele>0</ele>
				<Speed></Speed>
			</trkpt>
			<trkpt lat="31.557447" lon="117.349026">
				<ele>0</ele>
				<Speed></Speed>
			</trkpt>
			<trkpt lat="31.55879" lon="117.347953">
				<ele>0</ele>
				<Speed></Speed>
			</trkpt>
			<trkpt lat="31.559244" lon="117.347213">
				<ele>0</ele>
				<Speed></Speed>
			</trkpt>
			<trkpt lat="31.559692" lon="117.346172">
				<ele>0</ele>
				<Speed></Speed>
			</trkpt>
			<trkpt lat="31.560196" lon="117.343618">
				<ele>0</ele>
				<Speed></Speed>
			</trkpt>
			<trkpt lat="31.560386" lon="117.343404">
				<ele>0</ele>
				<Speed></Speed>
			</trkpt>
			<trkpt lat="31.560992" lon="117.343146">
				<ele>0</ele>
				<Speed></Speed>
			</trkpt>
			<trkpt lat="31.561596" lon="117.34261">
				<ele>0</ele>
				<Speed></Speed>
			</trkpt>
			<trkpt lat="31.562857" lon="117.341001">
				<ele>0</ele>
				<Speed></Speed>
			</trkpt>
			<trkpt lat="31.563404" lon="117.340056">
				<ele>0</ele>
				<Speed></Speed>
			</trkpt>
			<trkpt lat="31.564815" lon="117.335904">
				<ele>0</ele>
				<Speed></Speed>
			</trkpt>
			<trkpt lat="31.564967" lon="117.334756">
				<ele>0</ele>
				<Speed></Speed>
			</trkpt>
			<trkpt lat="31.565136" lon="117.334434">
				<ele>0</ele>
				<Speed></Speed>
			</trkpt>
			<trkpt lat="31.5657" lon="117.334274">
				<ele>0</ele>
				<Speed></Speed>
			</trkpt>
			<trkpt lat="31.567325" lon="117.334113">
				<ele>0</ele>
				<Speed></Speed>
			</trkpt>
			<trkpt lat="31.569071" lon="117.334198">
				<ele>0</ele>
				<Speed></Speed>
			</trkpt>
			<trkpt lat="31.571027" lon="117.333726">
				<ele>0</ele>
				<Speed></Speed>
			</trkpt>
			<trkpt lat="31.571609" lon="117.333716">
				<ele>0</ele>
				<Speed></Speed>
			</trkpt>
			<trkpt lat="31.57424" lon="117.334359">
				<ele>0</ele>
				<Speed></Speed>
			</trkpt>
			<trkpt lat="31.577855" lon="117.335776">
				<ele>0</ele>
				<Speed></Speed>
			</trkpt>
			<trkpt lat="31.578244" lon="117.335743">
				<ele>0</ele>
				<Speed></Speed>
			</trkpt>
			<trkpt lat="31.578601" lon="117.335411">
				<ele>0</ele>
				<Speed></Speed>
			</trkpt>
			<trkpt lat="31.579551" lon="117.3304">
				<ele>0</ele>
				<Speed></Speed>
			</trkpt>
			<trkpt lat="31.579864" lon="117.328276">
				<ele>0</ele>
				<Speed></Speed>
			</trkpt>
			<trkpt lat="31.579781" lon="117.327729">
				<ele>0</ele>
				<Speed></Speed>
			</trkpt>
			<trkpt lat="31.579256" lon="117.326914">
				<ele>0</ele>
				<Speed></Speed>
			</trkpt>
			<trkpt lat="31.57932" lon="117.326463">
				<ele>0</ele>
				<Speed></Speed>
			</trkpt>
			<trkpt lat="31.580581" lon="117.324489">
				<ele>0</ele>
				<Speed></Speed>
			</trkpt>
			<trkpt lat="31.580771" lon="117.324414">
				<ele>0</ele>
				<Speed></Speed>
			</trkpt>
			<trkpt lat="31.581262" lon="117.324457">
				<ele>0</ele>
				<Speed></Speed>
			</trkpt>
			<trkpt lat="31.582018" lon="117.324371">
				<ele>0</ele>
				<Speed></Speed>
			</trkpt>
			<trkpt lat="31.585046" lon="117.323577">
				<ele>0</ele>
				<Speed></Speed>
			</trkpt>
			<trkpt lat="31.585392" lon="117.323395">
				<ele>0</ele>
				<Speed></Speed>
			</trkpt>
			<trkpt lat="31.585725" lon="117.323073">
				<ele>0</ele>
				<Speed></Speed>
			</trkpt>
			<trkpt lat="31.586076" lon="117.322418">
				<ele>0</ele>
				<Speed></Speed>
			</trkpt>
			<trkpt lat="31.586184" lon="117.32186">
				<ele>0</ele>
				<Speed></Speed>
			</trkpt>
			<trkpt lat="31.586044" lon="117.320251">
				<ele>0</ele>
				<Speed></Speed>
			</trkpt>
			<trkpt lat="31.585728" lon="117.318245">
				<ele>0</ele>
				<Speed></Speed>
			</trkpt>
			<trkpt lat="31.585296" lon="117.316035">
				<ele>0</ele>
				<Speed></Speed>
			</trkpt>
			<trkpt lat="31.584808" lon="117.314146">
				<ele>0</ele>
				<Speed></Speed>
			</trkpt>
			<trkpt lat="31.583177" lon="117.310016">
				<ele>0</ele>
				<Speed></Speed>
			</trkpt>
			<trkpt lat="31.582067" lon="117.307484">
				<ele>0</ele>
				<Speed></Speed>
			</trkpt>
			<trkpt lat="31.579693" lon="117.301025">
				<ele>0</ele>
				<Speed></Speed>
			</trkpt>
			<trkpt lat="31.579703" lon="117.300521">
				<ele>0</ele>
				<Speed></Speed>
			</trkpt>
			<trkpt lat="31.580178" lon="117.298514">
				<ele>0</ele>
				<Speed></Speed>
			</trkpt>
			<trkpt lat="31.580178" lon="117.297034">
				<ele>0</ele>
				<Speed></Speed>
			</trkpt>
			<trkpt lat="31.580377" lon="117.296615">
				<ele>0</ele>
				<Speed></Speed>
			</trkpt>
			<trkpt lat="31.583056" lon="117.295124">
				<ele>0</ele>
				<Speed></Speed>
			</trkpt>
			<trkpt lat="31.583579" lon="117.29492">
				<ele>0</ele>
				<Speed></Speed>
			</trkpt>
			<trkpt lat="31.584199" lon="117.294867">
				<ele>0</ele>
				<Speed></Speed>
			</trkpt>
			<trkpt lat="31.585218" lon="117.295156">
				<ele>0</ele>
				<Speed></Speed>
			</trkpt>
			<trkpt lat="31.585779" lon="117.295199">
				<ele>0</ele>
				<Speed></Speed>
			</trkpt>
			<trkpt lat="31.589054" lon="117.294791">
				<ele>0</ele>
				<Speed></Speed>
			</trkpt>
			<trkpt lat="31.590325" lon="117.294749">
				<ele>0</ele>
				<Speed></Speed>
			</trkpt>
			<trkpt lat="31.591457" lon="117.29447">
				<ele>0</ele>
				<Speed></Speed>
			</trkpt>
			<trkpt lat="31.591969" lon="117.294212">
				<ele>0</ele>
				<Speed></Speed>
			</trkpt>
			<trkpt lat="31.592908" lon="117.293547">
				<ele>0</ele>
				<Speed></Speed>
			</trkpt>
			<trkpt lat="31.594088" lon="117.293161">
				<ele>0</ele>
				<Speed></Speed>
			</trkpt>
			<trkpt lat="31.598152" lon="117.292646">
				<ele>0</ele>
				<Speed></Speed>
			</trkpt>
			<trkpt lat="31.599088" lon="117.292549">
				<ele>0</ele>
				<Speed></Speed>
			</trkpt>
			<trkpt lat="31.60085" lon="117.292517">
				<ele>0</ele>
				<Speed></Speed>
			</trkpt>
			<trkpt lat="31.605638" lon="117.291938">
				<ele>0</ele>
				<Speed></Speed>
			</trkpt>
			<trkpt lat="31.606839" lon="117.291412">
				<ele>0</ele>
				<Speed></Speed>
			</trkpt>
			<trkpt lat="31.608575" lon="117.290983">
				<ele>0</ele>
				<Speed></Speed>
			</trkpt>
			<trkpt lat="31.609251" lon="117.291036">
				<ele>0</ele>
				<Speed></Speed>
			</trkpt>
			<trkpt lat="31.611944" lon="117.29183">
				<ele>0</ele>
				<Speed></Speed>
			</trkpt>
			<trkpt lat="31.612864" lon="117.292013">
				<ele>0</ele>
				<Speed></Speed>
			</trkpt>
			<trkpt lat="31.614199" lon="117.292066">
				<ele>0</ele>
				<Speed></Speed>
			</trkpt>
			<trkpt lat="31.615567" lon="117.291991">
				<ele>0</ele>
				<Speed></Speed>
			</trkpt>
			<trkpt lat="31.623767" lon="117.291122">
				<ele>0</ele>
				<Speed></Speed>
			</trkpt>
			<trkpt lat="31.62658" lon="117.290951">
				<ele>0</ele>
				<Speed></Speed>
			</trkpt>
			<trkpt lat="31.627538" lon="117.290618">
				<ele>0</ele>
				<Speed></Speed>
			</trkpt>
			<trkpt lat="31.629665" lon="117.289588">
				<ele>0</ele>
				<Speed></Speed>
			</trkpt>
			<trkpt lat="31.63202" lon="117.289009">
				<ele>0</ele>
				<Speed></Speed>
			</trkpt>
			<trkpt lat="31.634378" lon="117.288687">
				<ele>0</ele>
				<Speed></Speed>
			</trkpt>
			<trkpt lat="31.638133" lon="117.288558">
				<ele>0</ele>
				<Speed></Speed>
			</trkpt>
			<trkpt lat="31.640584" lon="117.288998">
				<ele>0</ele>
				<Speed></Speed>
			</trkpt>
			<trkpt lat="31.642942" lon="117.288901">
				<ele>0</ele>
				<Speed></Speed>
			</trkpt>
			<trkpt lat="31.643666" lon="117.28903">
				<ele>0</ele>
				<Speed></Speed>
			</trkpt>
			<trkpt lat="31.645573" lon="117.289588">
				<ele>0</ele>
				<Speed></Speed>
			</trkpt>
			<trkpt lat="31.646705" lon="117.289652">
				<ele>0</ele>
				<Speed></Speed>
			</trkpt>
			<trkpt lat="31.647121" lon="117.289577">
				<ele>0</ele>
				<Speed></Speed>
			</trkpt>
			<trkpt lat="31.648011" lon="117.289223">
				<ele>0</ele>
				<Speed></Speed>
			</trkpt>
			<trkpt lat="31.649857" lon="117.288848">
				<ele>0</ele>
				<Speed></Speed>
			</trkpt>
			<trkpt lat="31.652652" lon="117.288901">
				<ele>0</ele>
				<Speed></Speed>
			</trkpt>
			<trkpt lat="31.655218" lon="117.288655">
				<ele>0</ele>
				<Speed></Speed>
			</trkpt>
			<trkpt lat="31.655873" lon="117.288376">
				<ele>0</ele>
				<Speed></Speed>
			</trkpt>
			<trkpt lat="31.657361" lon="117.287549">
				<ele>0</ele>
				<Speed></Speed>
			</trkpt>
			<trkpt lat="31.658391" lon="117.28726">
				<ele>0</ele>
				<Speed></Speed>
			</trkpt>
			<trkpt lat="31.659306" lon="117.287324">
				<ele>0</ele>
				<Speed></Speed>
			</trkpt>
			<trkpt lat="31.662023" lon="117.288322">
				<ele>0</ele>
				<Speed></Speed>
			</trkpt>
			<trkpt lat="31.663332" lon="117.288665">
				<ele>0</ele>
				<Speed></Speed>
			</trkpt>
			<trkpt lat="31.664552" lon="117.288848">
				<ele>0</ele>
				<Speed></Speed>
			</trkpt>
			<trkpt lat="31.66709" lon="117.28903">
				<ele>0</ele>
				<Speed></Speed>
			</trkpt>
			<trkpt lat="31.668206" lon="117.289266">
				<ele>0</ele>
				<Speed></Speed>
			</trkpt>
			<trkpt lat="31.669045" lon="117.289609">
				<ele>0</ele>
				<Speed></Speed>
			</trkpt>
			<trkpt lat="31.67052" lon="117.290489">
				<ele>0</ele>
				<Speed></Speed>
			</trkpt>
			<trkpt lat="31.672505" lon="117.290854">
				<ele>0</ele>
				<Speed></Speed>
			</trkpt>
			<trkpt lat="31.673141" lon="117.291047">
				<ele>0</ele>
				<Speed></Speed>
			</trkpt>
			<trkpt lat="31.675721" lon="117.292388">
				<ele>0</ele>
				<Speed></Speed>
			</trkpt>
			<trkpt lat="31.67703" lon="117.292785">
				<ele>0</ele>
				<Speed></Speed>
			</trkpt>
			<trkpt lat="31.67842" lon="117.292892">
				<ele>0</ele>
				<Speed></Speed>
			</trkpt>
			<trkpt lat="31.67972" lon="117.29271">
				<ele>0</ele>
				<Speed></Speed>
			</trkpt>
			<trkpt lat="31.680906" lon="117.292678">
				<ele>0</ele>
				<Speed></Speed>
			</trkpt>
			<trkpt lat="31.682537" lon="117.292839">
				<ele>0</ele>
				<Speed></Speed>
			</trkpt>
			<trkpt lat="31.684114" lon="117.293343">
				<ele>0</ele>
				<Speed></Speed>
			</trkpt>
			<trkpt lat="31.684642" lon="117.293922">
				<ele>0</ele>
				<Speed></Speed>
			</trkpt>
			<trkpt lat="31.685611" lon="117.294427">
				<ele>0</ele>
				<Speed></Speed>
			</trkpt>
			<trkpt lat="31.686024" lon="117.294952">
				<ele>0</ele>
				<Speed></Speed>
			</trkpt>
			<trkpt lat="31.686195" lon="117.295027">
				<ele>0</ele>
				<Speed></Speed>
			</trkpt>
			<trkpt lat="31.686753" lon="117.295027">
				<ele>0</ele>
				<Speed></Speed>
			</trkpt>
			<trkpt lat="31.687303" lon="117.295564">
				<ele>0</ele>
				<Speed></Speed>
			</trkpt>
			<trkpt lat="31.687925" lon="117.295639">
				<ele>0</ele>
				<Speed></Speed>
			</trkpt>
			<trkpt lat="31.688274" lon="117.2958">
				<ele>0</ele>
				<Speed></Speed>
			</trkpt>
			<trkpt lat="31.692917" lon="117.298654">
				<ele>0</ele>
				<Speed></Speed>
			</trkpt>
			<trkpt lat="31.694843" lon="117.300006">
				<ele>0</ele>
				<Speed></Speed>
			</trkpt>
			<trkpt lat="31.695516" lon="117.300392">
				<ele>0</ele>
				<Speed></Speed>
			</trkpt>
			<trkpt lat="31.69657" lon="117.301207">
				<ele>0</ele>
				<Speed></Speed>
			</trkpt>
			<trkpt lat="31.69833" lon="117.302774">
				<ele>0</ele>
				<Speed></Speed>
			</trkpt>
			<trkpt lat="31.701299" lon="117.305907">
				<ele>0</ele>
				<Speed></Speed>
			</trkpt>
			<trkpt lat="31.70217" lon="117.307022">
				<ele>0</ele>
				<Speed></Speed>
			</trkpt>
			<trkpt lat="31.702736" lon="117.307913">
				<ele>0</ele>
				<Speed></Speed>
			</trkpt>
			<trkpt lat="31.703203" lon="117.308417">
				<ele>0</ele>
				<Speed></Speed>
			</trkpt>
			<trkpt lat="31.703729" lon="117.309554">
				<ele>0</ele>
				<Speed></Speed>
			</trkpt>
			<trkpt lat="31.704697" lon="117.31082">
				<ele>0</ele>
				<Speed></Speed>
			</trkpt>
			<trkpt lat="31.705271" lon="117.311743">
				<ele>0</ele>
				<Speed></Speed>
			</trkpt>
			<trkpt lat="31.705805" lon="117.31273">
				<ele>0</ele>
				<Speed></Speed>
			</trkpt>
			<trkpt lat="31.706451" lon="117.314361">
				<ele>0</ele>
				<Speed></Speed>
			</trkpt>
			<trkpt lat="31.707578" lon="117.316335">
				<ele>0</ele>
				<Speed></Speed>
			</trkpt>
			<trkpt lat="31.708318" lon="117.31803">
				<ele>0</ele>
				<Speed></Speed>
			</trkpt>
			<trkpt lat="31.709099" lon="117.32127">
				<ele>0</ele>
				<Speed></Speed>
			</trkpt>
			<trkpt lat="31.709686" lon="117.322633">
				<ele>0</ele>
				<Speed></Speed>
			</trkpt>
			<trkpt lat="31.709876" lon="117.323427">
				<ele>0</ele>
				<Speed></Speed>
			</trkpt>
			<trkpt lat="31.70967" lon="117.323577">
				<ele>0</ele>
				<Speed></Speed>
			</trkpt>
			<trkpt lat="31.708686" lon="117.323555">
				<ele>0</ele>
				<Speed></Speed>
			</trkpt>
			<trkpt lat="31.708192" lon="117.323652">
				<ele>0</ele>
				<Speed></Speed>
			</trkpt>
			<trkpt lat="31.707996" lon="117.323845">
				<ele>0</ele>
				<Speed></Speed>
			</trkpt>
			<trkpt lat="31.70783" lon="117.324178">
				<ele>0</ele>
				<Speed></Speed>
			</trkpt>
			<trkpt lat="31.707803" lon="117.324553">
				<ele>0</ele>
				<Speed></Speed>
			</trkpt>
			<trkpt lat="31.707873" lon="117.324811">
				<ele>0</ele>
				<Speed></Speed>
			</trkpt>
			<trkpt lat="31.708256" lon="117.32524">
				<ele>0</ele>
				<Speed></Speed>
			</trkpt>
			<trkpt lat="31.71" lon="117.325283">
				<ele>0</ele>
				<Speed></Speed>
			</trkpt>
			<trkpt lat="31.710324" lon="117.325379">
				<ele>0</ele>
				<Speed></Speed>
			</trkpt>
			<trkpt lat="31.71056" lon="117.326195">
				<ele>0</ele>
				<Speed></Speed>
			</trkpt>
			<trkpt lat="31.710912" lon="117.326956">
				<ele>0</ele>
				<Speed></Speed>
			</trkpt>
			<trkpt lat="31.711684" lon="117.328115">
				<ele>0</ele>
				<Speed></Speed>
			</trkpt>
			<trkpt lat="31.712572" lon="117.329832">
				<ele>0</ele>
				<Speed></Speed>
			</trkpt>
			<trkpt lat="31.713404" lon="117.330808">
				<ele>0</ele>
				<Speed></Speed>
			</trkpt>
		</trkseg>
	</trk>
</gpx>